[{"OBJECT_NAME":"IRIDIUM 108","OBJECT_ID":"2017-003H","EPOCH":"2026-03-09T14:45:22.333248","MEAN_MOTION":14.34217052,"ECCENTRICITY":0.000234,"INCLINATION":86.3916,"RA_OF_ASC_NODE":98.4141,"ARG_OF_PERICENTER":95.4169,"MEAN_ANOMALY":264.7294,"EPHEMERIS_TYPE":0,"CLASSIFICATION_TYPE":"U","NORAD_CAT_ID":41924,"ELEMENT_SET_NO":999,"REV_AT_EPOCH":48083,"BSTAR":9.2737e-7,"MEAN_MOTION_DOT":2.2e-7,"MEAN_MOTION_DDOT":0},{"OBJECT_NAME":"FENGYUN 1C DEB","OBJECT_ID":"1999-025BHR","EPOCH":"2026-02-24T21:35:26.092320","MEAN_MOTION":14.3228195,"ECCENTRICITY":0.0055586,"INCLINATION":98.9764,"RA_OF_ASC_NODE":291.089,"ARG_OF_PERICENTER":37.185,"MEAN_ANOMALY":323.3162,"EPHEMERIS_TYPE":0,"CLASSIFICATION_TYPE":"U","NORAD_CAT_ID":31163,"ELEMENT_SET_NO":999,"REV_AT_EPOCH":65803,"BSTAR":0.00040572,"MEAN_MOTION_DOT":1.067e-5,"MEAN_MOTION_DDOT":0}]
